{"type": "FeatureCollection", "features": [ {"type": "Feature", "properties": {"norad_id": 30941, "name": "FENGYUN 1C DEB", "group": "fengyun-1c-debris", "lat": -33.076948364587224, "lon": -141.1066914159402, "alt_km": 775.0474173177308, "timestamp": "2025-12-22T14:45:57.682327+00:00", "meta": {"OBJECT_NAME": "FENGYUN 1C DEB", "OBJECT_ID": "1999-025BAF", "EPOCH": "2025-12-22T03:10:33.272256", "MEAN_MOTION": 14.31123226, "ECCENTRICITY": 0.00338574, "INCLINATION": 98.5458, "RA_OF_ASC_NODE": 212.7981, "ARG_OF_PERICENTER": 289.5186, "MEAN_ANOMALY": 70.2341, "EPHEMERIS_TYPE": 0, "CLASSIFICATION_TYPE": "U", "NORAD_CAT_ID": 30941, "ELEMENT_SET_NO": 999, "REV_AT_EPOCH": 96760, "BSTAR": 0.0019422686, "MEAN_MOTION_DOT": 5.114e-05, "MEAN_MOTION_DDOT": 0}, "tle": {"line1": "1 30941U 99025BAF 25356.13232954  .00005114  00000+0  19423-2 0  9993", "line2": "2 30941  98.5458 212.7981 0033857 289.5186  70.2341 14.31123226967603"}}, "geometry": {"type": "Point", "coordinates": [-141.1066914159402, -33.076948364587224]}}, {"type": "Feature", "properties": {"norad_id": 30942, "name": "FENGYUN 1C DEB", "group": "fengyun-1c-debris", "lat": 60.52011020771394, "lon": -169.73519085241176, "alt_km": 759.9986841111213, "timestamp": "2025-12-22T14:45:57.682337+00:00", "meta": {"OBJECT_NAME": "FENGYUN 1C DEB", "OBJECT_ID": "1999-025BAG", "EPOCH": "2025-12-20T23:26:39.005376", "MEAN_MOTION": 14.14845672, "ECCENTRICITY": 0.01380308, "INCLINATION": 98.6797, "RA_OF_ASC_NODE": 352.9939, "ARG_OF_PERICENTER": 82.907, "MEAN_ANOMALY": 333.8433, "EPHEMERIS_TYPE": 0, "CLASSIFICATION_TYPE": "U", "NORAD_CAT_ID": 30942, "ELEMENT_SET_NO": 999, "REV_AT_EPOCH": 96761, "BSTAR": 0.00019184496, "MEAN_MOTION_DOT": 3.64e-06, "MEAN_MOTION_DDOT": 0}, "tle": {"line1": "1 30942U 99025BAG 25354.97684034  .00000364  00000+0  19184-3 0  9991", "line2": "2 30942  98.6797 352.9939 0138030  82.9070 333.8433 14.14845672967615"}}, "geometry": {"type": "Point", "coordinates": [-169.73519085241176, 60.52011020771394]}}, {"type": "Feature", "properties": {"norad_id": 30943, "name": "FENGYUN 1C DEB", "group": "fengyun-1c-debris", "lat": 81.07147154917934, "lon": -70.07298068100661, "alt_km": 847.0821232736353, "timestamp": "2025-12-22T14:45:57.682347+00:00", "meta": {"OBJECT_NAME": "FENGYUN 1C DEB", "OBJECT_ID": "1999-025BAH", "EPOCH": "2025-12-20T07:38:18.723264", "MEAN_MOTION": 14.04497018, "ECCENTRICITY": 0.00507, "INCLINATION": 98.7975, "RA_OF_ASC_NODE": 8.0033, "ARG_OF_PERICENTER": 44.8439, "MEAN_ANOMALY": 315.6809, "EPHEMERIS_TYPE": 0, "CLASSIFICATION_TYPE": "U", "NORAD_CAT_ID": 30943, "ELEMENT_SET_NO": 999, "REV_AT_EPOCH": 95848, "BSTAR": 0.00028856793, "MEAN_MOTION_DOT": 4.23e-06, "MEAN_MOTION_DDOT": 0}, "tle": {"line1": "1 30943U 99025BAH 25354.31827226  .00000423  00000+0  28857-3 0  9995", "line2": "2 30943  98.7975   8.0033 0050700  44.8439 315.6809 14.04497018958488"}}, "geometry": {"type": "Point", "coordinates": [-70.07298068100661, 81.07147154917934]}}, {"type": "Feature", "properties": {"norad_id": 30944, "name": "FENGYUN 1C DEB", "group": "fengyun-1c-debris", "lat": 5.650084028723891, "lon": -126.26658065209871, "alt_km": 742.4758258208722, "timestamp": "2025-12-22T14:45:57.682358+00:00", "meta": {"OBJECT_NAME": "FENGYUN 1C DEB", "OBJECT_ID": "1999-025BAJ", "EPOCH": "2025-12-21T22:15:45.159264", "MEAN_MOTION": 14.52456444, "ECCENTRICITY": 0.01492776, "INCLINATION": 98.849, "RA_OF_ASC_NODE": 52.1254, "ARG_OF_PERICENTER": 73.0628, "MEAN_ANOMALY": 105.9233, "EPHEMERIS_TYPE": 0, "CLASSIFICATION_TYPE": "U", "NORAD_CAT_ID": 30944, "ELEMENT_SET_NO": 999, "REV_AT_EPOCH": 99209, "BSTAR": 0.00012945518, "MEAN_MOTION_DOT": 5.54e-06, "MEAN_MOTION_DDOT": 0}, "tle": {"line1": "1 30944U 99025BAJ 25355.92760601  .00000554  00000+0  12946-3 0  9994", "line2": "2 30944  98.8490  52.1254 0149277  73.0628 105.9233 14.52456444992096"}}, "geometry": {"type": "Point", "coordinates": [-126.26658065209871, 5.650084028723891]}}, {"type": "Feature", "properties": {"norad_id": 30945, "name": "FENGYUN 1C DEB", "group": "fengyun-1c-debris", "lat": -18.250697060939977, "lon": -177.08135791412963, "alt_km": 818.9425715644247, "timestamp": "2025-12-22T14:45:57.682368+00:00", "meta": {"OBJECT_NAME": "FENGYUN 1C DEB", "OBJECT_ID": "1999-025BAK", "EPOCH": "2025-12-22T00:42:16.010208", "MEAN_MOTION": 14.29785924, "ECCENTRICITY": 0.00303541, "INCLINATION": 99.389, "RA_OF_ASC_NODE": 5.4152, "ARG_OF_PERICENTER": 12.2261, "MEAN_ANOMALY": 52.1318, "EPHEMERIS_TYPE": 0, "CLASSIFICATION_TYPE": "U", "NORAD_CAT_ID": 30945, "ELEMENT_SET_NO": 999, "REV_AT_EPOCH": 96570, "BSTAR": 0.0016076672, "MEAN_MOTION_DOT": 4.102e-05, "MEAN_MOTION_DDOT": 0}, "tle": {"line1": "1 30945U 99025BAK 25356.02935197  .00004102  00000+0  16077-2 0  9992", "line2": "2 30945  99.3890   5.4152 0030354  12.2261  52.1318 14.29785924965705"}}, "geometry": {"type": "Point", "coordinates": [-177.08135791412963, -18.250697060939977]}}, {"type": "Feature", "properties": {"norad_id": 30946, "name": "FENGYUN 1C DEB", "group": "fengyun-1c-debris", "lat": 80.11092053271094, "lon": 46.53798649475306, "alt_km": 709.8678772125031, "timestamp": "2025-12-22T14:45:57.682378+00:00", "meta": {"OBJECT_NAME": "FENGYUN 1C DEB", "OBJECT_ID": "1999-025BAL", "EPOCH": "2025-12-21T06:59:53.242944", "MEAN_MOTION": 14.48192935, "ECCENTRICITY": 0.00895927, "INCLINATION": 99.0397, "RA_OF_ASC_NODE": 111.0737, "ARG_OF_PERICENTER": 167.5285, "MEAN_ANOMALY": 222.4987, "EPHEMERIS_TYPE": 0, "CLASSIFICATION_TYPE": "U", "NORAD_CAT_ID": 30946, "ELEMENT_SET_NO": 999, "REV_AT_EPOCH": 98475, "BSTAR": 0.00055261504, "MEAN_MOTION_DOT": 2.114e-05, "MEAN_MOTION_DDOT": 0}, "tle": {"line1": "1 30946U 99025BAL 25355.29158846  .00002114  00000+0  55262-3 0  9990", "line2": "2 30946  99.0397 111.0737 0089592 167.5285 222.4987 14.48192935984751"}}, "geometry": {"type": "Point", "coordinates": [46.53798649475306, 80.11092053271094]}}, {"type": "Feature", "properties": {"norad_id": 30947, "name": "FENGYUN 1C DEB", "group": "fengyun-1c-debris", "lat": 19.59449370613663, "lon": 69.66712422539621, "alt_km": 728.4000157945047, "timestamp": "2025-12-22T14:45:57.682389+00:00", "meta": {"OBJECT_NAME": "FENGYUN 1C DEB", "OBJECT_ID": "1999-025BAM", "EPOCH": "2025-12-22T03:59:50.491104", "MEAN_MOTION": 14.38057208, "ECCENTRICITY": 0.00958571, "INCLINATION": 98.8087, "RA_OF_ASC_NODE": 246.0429, "ARG_OF_PERICENTER": 219.5369, "MEAN_ANOMALY": 139.8798, "EPHEMERIS_TYPE": 0, "CLASSIFICATION_TYPE": "U", "NORAD_CAT_ID": 30947, "ELEMENT_SET_NO": 999, "REV_AT_EPOCH": 98628, "BSTAR": 0.00023886791, "MEAN_MOTION_DOT": 7.14e-06, "MEAN_MOTION_DDOT": 0}, "tle": {"line1": "1 30947U 99025BAM 25356.16655661  .00000714  00000+0  23887-3 0  9997", "line2": "2 30947  98.8087 246.0429 0095857 219.5369 139.8798 14.38057208986287"}}, "geometry": {"type": "Point", "coordinates": [69.66712422539621, 19.59449370613663]}}, {"type": "Feature", "properties": {"norad_id": 30949, "name": "FENGYUN 1C DEB", "group": "fengyun-1c-debris", "lat": -42.07062336356253, "lon": -1.3532796348943037, "alt_km": 783.8473205447126, "timestamp": "2025-12-22T14:45:57.682399+00:00", "meta": {"OBJECT_NAME": "FENGYUN 1C DEB", "OBJECT_ID": "1999-025BAP", "EPOCH": "2025-12-22T06:32:20.994144", "MEAN_MOTION": 14.14058038, "ECCENTRICITY": 0.01161042, "INCLINATION": 98.6981, "RA_OF_ASC_NODE": 350.3705, "ARG_OF_PERICENTER": 282.4266, "MEAN_ANOMALY": 90.2041, "EPHEMERIS_TYPE": 0, "CLASSIFICATION_TYPE": "U", "NORAD_CAT_ID": 30949, "ELEMENT_SET_NO": 999, "REV_AT_EPOCH": 96651, "BSTAR": 0.00022736804, "MEAN_MOTION_DOT": 4.17e-06, "MEAN_MOTION_DDOT": 0}, "tle": {"line1": "1 30949U 99025BAP 25356.27246521  .00000417  00000+0  22737-3 0  9995", "line2": "2 30949  98.6981 350.3705 0116104 282.4266  90.2041 14.14058038966511"}}, "geometry": {"type": "Point", "coordinates": [-1.3532796348943037, -42.07062336356253]}}, {"type": "Feature", "properties": {"norad_id": 30954, "name": "FENGYUN 1C DEB", "group": "fengyun-1c-debris", "lat": 30.172161565958742, "lon": 91.38537534175268, "alt_km": 898.2325722960459, "timestamp": "2025-12-22T14:45:57.682410+00:00", "meta": {"OBJECT_NAME": "FENGYUN 1C DEB", "OBJECT_ID": "1999-025BAU", "EPOCH": "2025-12-22T06:15:34.920576", "MEAN_MOTION": 14.14973926, "ECCENTRICITY": 0.0128912, "INCLINATION": 98.7123, "RA_OF_ASC_NODE": 96.1537, "ARG_OF_PERICENTER": 160.3583, "MEAN_ANOMALY": 227.0374, "EPHEMERIS_TYPE": 0, "CLASSIFICATION_TYPE": "U", "NORAD_CAT_ID": 30954, "ELEMENT_SET_NO": 999, "REV_AT_EPOCH": 96522, "BSTAR": 0.0010082754, "MEAN_MOTION_DOT": 2.071e-05, "MEAN_MOTION_DDOT": 0}, "tle": {"line1": "1 30954U 99025BAU 25356.26082084  .00002071  00000+0  10083-2 0  9990", "line2": "2 30954  98.7123  96.1537 0128912 160.3583 227.0374 14.14973926965228"}}, "geometry": {"type": "Point", "coordinates": [91.38537534175268, 30.172161565958742]}}, {"type": "Feature", "properties": {"norad_id": 30956, "name": "FENGYUN 1C DEB", "group": "fengyun-1c-debris", "lat": 2.8373171378996362, "lon": 29.999665114918972, "alt_km": 823.8963136692755, "timestamp": "2025-12-22T14:45:57.682420+00:00", "meta": {"OBJECT_NAME": "FENGYUN 1C DEB", "OBJECT_ID": "1999-025BAW", "EPOCH": "2025-12-21T01:31:57.988704", "MEAN_MOTION": 14.14235145, "ECCENTRICITY": 0.00491177, "INCLINATION": 98.7589, "RA_OF_ASC_NODE": 28.9167, "ARG_OF_PERICENTER": 318.7398, "MEAN_ANOMALY": 69.7504, "EPHEMERIS_TYPE": 0, "CLASSIFICATION_TYPE": "U", "NORAD_CAT_ID": 30956, "ELEMENT_SET_NO": 999, "REV_AT_EPOCH": 96425, "BSTAR": 0.00065219968, "MEAN_MOTION_DOT": 1.215e-05, "MEAN_MOTION_DDOT": 0}, "tle": {"line1": "1 30956U 99025BAW 25355.06386561  .00001215  00000+0  65220-3 0  9999", "line2": "2 30956  98.7589  28.9167 0049117 318.7398  69.7504 14.14235145964252"}}, "geometry": {"type": "Point", "coordinates": [29.999665114918972, 2.8373171378996362]}}]}